NORAD_CAT_ID,OBJECT_NAME,OBJECT_TYPE,EPOCH,MEAN_MOTION,ECCENTRICITY,INCLINATION,RA_OF_ASC_NODE,ARG_OF_PERICENTER,MEAN_ANOMALY,BSTAR,MEAN_MOTION_DOT,MEAN_MOTION_DDOT,TLE_LINE0,TLE_LINE1,TLE_LINE2,SEMIMAJOR_AXIS,PERIOD,APOGEE,PERIGEE,DECAYED
53172.0,STARLINK-4299,PAYLOAD,2022-09-20 14:00:01,15.52444683,0.0001535,53.2178,85.8583,49.1791,102.1339,-0.018715,-0.01057693,0.0,0 STARLINK-4299,1 53172U 22083AS  22263.58334491 -.01057693  00000-0 -18715-1 0  9991,2 53172  53.2178  85.8583 0001535  49.1791 102.1339 15.52444683  1303,6787.728,92.757,410.635,408.551,0.0
53172.0,STARLINK-4299,PAYLOAD,2022-09-20 22:00:01,15.51683477,0.0001439,53.2176,84.2616,54.4495,160.4538,-0.019174,-0.01054463,0.0,0 STARLINK-4299,1 53172U 22083AS  22263.91668981 -.01054463  00000-0 -19174-1 0  9994,2 53172  53.2176  84.2616 0001439  54.4495 160.4538 15.51683477  1307,6789.948,92.802,412.79,410.835,0.0
53172.0,STARLINK-4299,PAYLOAD,2022-09-21 06:00:00,15.50863469,0.0001373,53.2175,82.6635,49.5864,227.8787,-0.016874,-0.00900545,0.0,0 STARLINK-4299,1 53172U 22083AS  22264.25001157 -.00900545  00000-0 -16874-1 0  9992,2 53172  53.2175  82.6635 0001373  49.5864 227.8787 15.50863469 10978,6792.340999999999,92.852,415.138,413.273,0.0
53172.0,STARLINK-4299,PAYLOAD,2022-09-21 22:00:00,15.49741573,0.0001398,53.2171,79.4784,44.3188,355.75300000000016,-0.021945,-0.01118853,0.0,0 STARLINK-4299,1 53172U 22083AS  22264.91667824 -.01118853  00000-0 -21945-1 0  9993,2 53172  53.2171  79.4784 0001398  44.3188 355.7530 15.49741573  1305,6795.618,92.919,418.4330000000001,416.533,0.0
53172.0,STARLINK-4299,PAYLOAD,2022-09-22 14:00:01,15.48199796,0.000158,53.2168,76.2946,49.7831,109.8322,-0.022471,-0.01088045,0.0,0 STARLINK-4299,1 53172U 22083AS  22265.58334491 -.01088045  00000-0 -22471-1 0  9992,2 53172  53.2168  76.2946 0001580  49.7831 109.8322 15.48199796 11180,6800.129,93.011,423.069,420.92,0.0
53172.0,STARLINK-4299,PAYLOAD,2022-09-22 22:00:00,15.47318153,0.0001431999999999,53.2171,74.7086,55.4088,162.6628,-0.019367,-0.00923383,0.0,0 STARLINK-4299,1 53172U 22083AS  22265.91667824 -.00923383  00000-0 -19367-1 0  9990,2 53172  53.2171  74.7086 0001432  55.4088 162.6628 15.47318153  1304,6802.712,93.064,425.551,423.603,0.0
53172.0,STARLINK-4299,PAYLOAD,2022-09-23 14:00:01,15.45899022,0.0001242,53.2177,71.5352,58.3902,273.6888,-0.023628,-0.01058628,0.0,0 STARLINK-4299,1 53172U 22083AS  22266.58334491 -.01058628  00000-0 -23628-1 0  9992,2 53172  53.2177  71.5352 0001242  58.3902 273.6888 15.45899022  1305,6806.875,93.15,429.585,427.894,0.0
53172.0,STARLINK-4299,PAYLOAD,2022-09-23 22:00:00,15.45137008,0.0001459,53.2174,69.9539,41.3544,346.3833,-0.024147,-0.01054287,0.0,0 STARLINK-4299,1 53172U 22083AS  22266.91667824 -.01054287  00000-0 -24147-1 0  9992,2 53172  53.2174  69.9539 0001459  41.3544 346.3833 15.45137008  1301,6809.113,93.196,431.971,429.984,0.0
53172.0,STARLINK-4299,PAYLOAD,2022-09-24 14:00:01,15.43618923,0.0001720999999999,53.2177,66.7927,40.7106,95.6712,-0.0254789999999999,-0.01055983,0.0,0 STARLINK-4299,1 53172U 22083AS  22267.58335648 -.01055983  00000-0 -25479-1 0  9995,2 53172  53.2177  66.7927 0001721  40.7106  95.6712 15.43618923 11498,6813.576,93.287,436.614,434.269,0.0
53172.0,STARLINK-4299,PAYLOAD,2022-09-24 22:00:00,15.42855909,0.0001459,53.2173,65.2167,57.2086,132.0298,-0.025972,-0.01049449,0.0,0 STARLINK-4299,1 53172U 22083AS  22267.91667824 -.01049449  00000-0 -25972-1 0  9994,2 53172  53.2173  65.2167 0001459  57.2086 132.0298 15.42855909  1302,6815.821999999999,93.333,438.682,436.693,0.0
53172.0,STARLINK-4299,PAYLOAD,2022-09-25 14:00:01,15.41340405,0.000152,53.2176,62.0665,45.3023,247.0387,-0.0274899999999999,-0.0106973,0.0,0 STARLINK-4299,1 53172U 22083AS  22268.58334491 -.01069730  00000-0 -27490-1 0  9991,2 53172  53.2176  62.0665 0001520  45.3023 247.0387 15.41340405 11644,6820.2890000000025,93.425,443.191,441.11800000000005,0.0
53172.0,STARLINK-4299,PAYLOAD,2022-09-25 22:00:01,15.40580426,0.0001506,53.2172,60.4957,39.6969,302.8903,-0.028155,-0.01068259,0.0,0 STARLINK-4299,1 53172U 22083AS  22268.91668981 -.01068259  00000-0 -28155-1 0  9996,2 53172  53.2172  60.4957 0001506  39.6969 302.8903 15.40580426  1309,6822.531999999997,93.471,445.425,443.37,0.0
53172.0,STARLINK-4299,PAYLOAD,2022-09-26 10:00:00,15.39441226,0.0001554999999999,53.2174,58.1393,51.3518,184.7349,-0.029233,-0.01068024,0.0,0 STARLINK-4299,1 53172U 22083AS  22269.41667824 -.01068024  00000-0 -29233-1 0  9995,2 53172  53.2174  58.1393 0001555  51.3518 184.7349 15.39441226 11779,6825.898,93.54,448.824,446.701,0.0
53172.0,STARLINK-4299,PAYLOAD,2022-09-26 14:00:01,15.39062099,0.0001617,53.2174,57.3566,40.9503,39.2006,-0.029668,-0.01070248,0.0,0 STARLINK-4299,1 53172U 22083AS  22269.58334491 -.01070248  00000-0 -29668-1 0  9997,2 53172  53.2174  57.3566 0001617  40.9503  39.2006 15.39062099  1308,6827.018,93.563,449.987,447.78,0.0
53172.0,STARLINK-4299,PAYLOAD,2022-09-26 22:00:00,15.38301059,0.0001633,53.2171,55.791,43.3865,84.2089,-0.030317,-0.01066905,0.0,0 STARLINK-4299,1 53172U 22083AS  22269.91667824 -.01066905  00000-0 -30317-1 0  9991,2 53172  53.2171  55.7910 0001633  43.3865  84.2089 15.38301059  1308,6829.27,93.61,452.25,450.02,0.0
53172.0,STARLINK-4299,PAYLOAD,2022-09-27 06:00:00,15.37542915,0.000169,53.217,54.2259,39.8761,134.2512,-0.03116,-0.01069476,0.0,0 STARLINK-4299,1 53172U 22083AS  22270.25001157 -.01069476  00000-0 -31160-1 0  9994,2 53172  53.2170  54.2259 0001690  39.8761 134.2512 15.37542915 11906,6831.515,93.656,454.534,452.225,0.0
53172.0,STARLINK-4299,PAYLOAD,2022-09-27 14:00:01,15.36781039,0.000174,53.2174,52.6629,43.9402,175.8073,-0.031806,-0.01065265,0.0,0 STARLINK-4299,1 53172U 22083AS  22270.58334491 -.01065265  00000-0 -31806-1 0  9999,2 53172  53.2174  52.6629 0001740  43.9402 175.8073 15.36781039  1304,6833.772,93.702,456.827,454.448,0.0
53172.0,STARLINK-4299,PAYLOAD,2022-09-27 22:00:01,15.36024038,0.0001453999999999,53.2171,51.1026,52.3421,212.1746,-0.032718,-0.01068864,0.0,0 STARLINK-4299,1 53172U 22083AS  22270.91668981 -.01068864  00000-0 -32718-1 0  9991,2 53172  53.2171  51.1026 0001454  52.3421 212.1746 15.36024038  1304,6836.018,93.749,458.876,456.889,0.0
53172.0,STARLINK-4299,PAYLOAD,2022-09-28 06:00:00,15.35261571,0.0001416,53.2173,49.5416,47.2544,260.9946,-0.0333829999999999,-0.01064469,0.0,0 STARLINK-4299,1 53172U 22083AS  22271.25001157 -.01064469  00000-0 -33383-1 0  9991,2 53172  53.2173  49.5416 0001416  47.2544 260.9946 15.35261571 12058,6838.281,93.795,461.114,459.177,0.0
53172.0,STARLINK-4299,PAYLOAD,2022-09-28 14:00:01,15.34504633,0.0001506,53.2174,47.9854,43.0602,308.0683,-0.034336,-0.01068264,0.0,0 STARLINK-4299,1 53172U 22083AS  22271.58334491 -.01068264  00000-0 -34336-1 0  9993,2 53172  53.2174  47.9854 0001506  43.0602 308.0683 15.34504633  1302,6840.529,93.841,463.424,461.364,0.0
53172.0,STARLINK-4299,PAYLOAD,2022-09-28 22:00:00,15.33774138,0.0001653,53.2169,46.4316,33.5112,359.5696,-0.036498,-0.01105932,0.0,0 STARLINK-4299,1 53172U 22083AS  22271.91667824 -.01105932  00000-0 -36498-1 0  9994,2 53172  53.2169  46.4316 0001653  33.5112 359.5696 15.33774138  1309,6842.701,93.886,465.697,463.435,0.0
53172.0,STARLINK-4299,PAYLOAD,2022-09-29 06:00:00,15.32983875,0.0001644,53.2173,44.8746,38.041,36.1139,-0.035962,-0.01066148,0.0,0 STARLINK-4299,1 53172U 22083AS  22272.25001157 -.01066148  00000-0 -35962-1 0  9993,2 53172  53.2173  44.8746 0001644  38.0410  36.1139 15.32983875 12215,6845.053000000001,93.934,468.043,465.792,0.0
53172.0,STARLINK-4299,PAYLOAD,2022-09-29 14:00:01,15.32232313,0.0001648,53.2174,43.3249,45.1195,69.1735,-0.0372329999999999,-0.01076934,0.0,0 STARLINK-4299,1 53172U 22083AS  22272.58334491 -.01076934  00000-0 -37233-1 0  9996,2 53172  53.2174  43.3249 0001648  45.1195  69.1735 15.32232313  1301,6847.291,93.981,470.284,468.027,0.0
53172.0,STARLINK-4299,PAYLOAD,2022-09-29 22:00:00,15.314656,0.0001891,53.2172,41.7742,36.7491,116.7783,-0.037728,-0.01066228,0.0,0 STARLINK-4299,1 53172U 22083AS  22272.91667824 -.01066228  00000-0 -37728-1 0  9996,2 53172  53.2172  41.7742 0001891  36.7491 116.7783 15.31465600  1302,6849.576,94.028,472.736,470.146,0.0
53172.0,STARLINK-4299,PAYLOAD,2022-09-30 06:00:02,15.30713305,0.0001857,53.2173,40.2253,37.3449,154.5611,-0.0390519999999999,-0.01076966,0.0,0 STARLINK-4299,1 53172U 22083AS  22273.25002315 -.01076966  00000-0 -39052-1 0  9994,2 53172  53.2173  40.2253 0001857  37.3449 154.5611 15.30713305 12361,6851.82,94.074,474.957,472.412,0.0
53172.0,STARLINK-4299,PAYLOAD,2022-09-30 14:00:01,15.29949283,0.0001704,53.2176,38.6799,45.9784,183.2702,-0.039695,-0.01069546,0.0,0 STARLINK-4299,1 53172U 22083AS  22273.58334491 -.01069546  00000-0 -39695-1 0  9992,2 53172  53.2176  38.6799 0001704  45.9784 183.2702 15.29949283  1304,6854.101,94.121,477.134,474.798,0.0
53172.0,STARLINK-4299,PAYLOAD,2022-09-30 22:00:00,15.29197467,0.0001781,53.217,37.1354,39.0059,226.7319,-0.041107,-0.01081028,0.0,0 STARLINK-4299,1 53172U 22083AS  22273.91667824 -.01081028  00000-0 -41107-1 0  9998,2 53172  53.2170  37.1354 0001781  39.0059 226.7319 15.29197467  1309,6856.347,94.167,479.4330000000001,476.991,0.0
53172.0,STARLINK-4299,PAYLOAD,2022-10-01 06:00:00,15.28474259,0.0001616,53.2174,35.5911,22.1536,279.1458,-0.044048,-0.01128259,0.0,0 STARLINK-4299,1 53172U 22083AS  22274.25001157 -.01128259  00000-0 -44048-1 0  9992,2 53172  53.2174  35.5911 0001616  22.1536 279.1458 15.28474259 12511,6858.51,94.212,481.483,479.266,0.0
53172.0,STARLINK-4299,PAYLOAD,2022-10-01 14:00:01,15.27707657,0.0001437,53.2174,34.0509,47.6042,288.3663,-0.044723,-0.01119613,0.0,0 STARLINK-4299,1 53172U 22083AS  22274.58334491 -.01119613  00000-0 -44723-1 0  9992,2 53172  53.2174  34.0509 0001437  47.6042 288.3663 15.27707657  1308,6860.804,94.259,483.655,481.6830000000001,0.0
